[{"OBJECT_NAME":"STARLINK-11147 [DTC]","OBJECT_ID":"2024-133A","EPOCH":"2025-09-24T05:02:47.880960","MEAN_MOTION":15.69692136,"ECCENTRICITY":0.0001126,"INCLINATION":53.1592,"RA_OF_ASC_NODE":247.1282,"ARG_OF_PERICENTER":81.8382,"MEAN_ANOMALY":278.2764,"EPHEMERIS_TYPE":0,"CLASSIFICATION_TYPE":"U","NORAD_CAT_ID":60301,"ELEMENT_SET_NO":999,"REV_AT_EPOCH":6758,"BSTAR":-3.964425e-6,"MEAN_MOTION_DOT":-1.068e-5,"MEAN_MOTION_DDOT":0},{"OBJECT_NAME":"STARLINK-11128 [DTC]","OBJECT_ID":"2024-133B","EPOCH":"2025-09-24T03:24:02.389248","MEAN_MOTION":15.69705589,"ECCENTRICITY":0.00011352,"INCLINATION":53.1578,"RA_OF_ASC_NODE":247.4079,"ARG_OF_PERICENTER":78.2232,"MEAN_ANOMALY":281.8913,"EPHEMERIS_TYPE":0,"CLASSIFICATION_TYPE":"U","NORAD_CAT_ID":60302,"ELEMENT_SET_NO":999,"REV_AT_EPOCH":6757,"BSTAR":4.1212975e-5,"MEAN_MOTION_DOT":4.406e-5,"MEAN_MOTION_DDOT":0},{"OBJECT_NAME":"STARLINK-11227 [DTC]","OBJECT_ID":"2024-133C","EPOCH":"2025-09-25T02:12:13.842432","MEAN_MOTION":15.69712592,"ECCENTRICITY":0.00012002,"INCLINATION":53.1585,"RA_OF_ASC_NODE":242.6675,"ARG_OF_PERICENTER":98.6309,"MEAN_ANOMALY":261.4845,"EPHEMERIS_TYPE":0,"CLASSIFICATION_TYPE":"U","NORAD_CAT_ID":60303,"ELEMENT_SET_NO":999,"REV_AT_EPOCH":6780,"BSTAR":1.3347549e-5,"MEAN_MOTION_DOT":1.029e-5,"MEAN_MOTION_DDOT":0},{"OBJECT_NAME":"STARLINK-11224 [DTC]","OBJECT_ID":"2024-133D","EPOCH":"2025-09-25T05:08:30.830208","MEAN_MOTION":15.69732673,"ECCENTRICITY":0.00010189,"INCLINATION":53.1584,"RA_OF_ASC_NODE":242.008,"ARG_OF_PERICENTER":92.0954,"MEAN_ANOMALY":268.0181,"EPHEMERIS_TYPE":0,"CLASSIFICATION_TYPE":"U","NORAD_CAT_ID":60304,"ELEMENT_SET_NO":999,"REV_AT_EPOCH":6782,"BSTAR":7.461144e-6,"MEAN_MOTION_DOT":3.16e-6,"MEAN_MOTION_DDOT":0},{"OBJECT_NAME":"STARLINK-11115 [DTC]","OBJECT_ID":"2024-133E","EPOCH":"2025-09-25T05:01:28.015392","MEAN_MOTION":15.69714793,"ECCENTRICITY":0.00021462,"INCLINATION":53.1586,"RA_OF_ASC_NODE":241.9742,"ARG_OF_PERICENTER":100.4753,"MEAN_ANOMALY":259.6507,"EPHEMERIS_TYPE":0,"CLASSIFICATION_TYPE":"U","NORAD_CAT_ID":60305,"ELEMENT_SET_NO":999,"REV_AT_EPOCH":6774,"BSTAR":6.621332e-6,"MEAN_MOTION_DOT":2.12e-6,"MEAN_MOTION_DDOT":0},{"OBJECT_NAME":"STARLINK-11109 [DTC]","OBJECT_ID":"2024-133F","EPOCH":"2025-09-25T04:54:23.857920","MEAN_MOTION":15.69711007,"ECCENTRICITY":0.00010589,"INCLINATION":53.1584,"RA_OF_ASC_NODE":241.9404,"ARG_OF_PERICENTER":76.5484,"MEAN_ANOMALY":283.5652,"EPHEMERIS_TYPE":0,"CLASSIFICATION_TYPE":"U","NORAD_CAT_ID":60306,"ELEMENT_SET_NO":999,"REV_AT_EPOCH":6774,"BSTAR":1.2145504e-5,"MEAN_MOTION_DOT":8.83e-6,"MEAN_MOTION_DDOT":0},{"OBJECT_NAME":"STARLINK-11223 [DTC]","OBJECT_ID":"2024-133G","EPOCH":"2025-09-25T04:40:16.808736","MEAN_MOTION":15.69708074,"ECCENTRICITY":9.616e-5,"INCLINATION":53.1579,"RA_OF_ASC_NODE":241.8768,"ARG_OF_PERICENTER":118.2155,"MEAN_ANOMALY":241.896,"EPHEMERIS_TYPE":0,"CLASSIFICATION_TYPE":"U","NORAD_CAT_ID":60307,"ELEMENT_SET_NO":999,"REV_AT_EPOCH":6774,"BSTAR":-7.984605e-6,"MEAN_MOTION_DOT":-1.555e-5,"MEAN_MOTION_DDOT":0},{"OBJECT_NAME":"STARLINK-11192 [DTC]","OBJECT_ID":"2024-133H","EPOCH":"2025-09-25T04:47:20.261184","MEAN_MOTION":15.69710654,"ECCENTRICITY":0.00011321,"INCLINATION":53.1591,"RA_OF_ASC_NODE":241.907,"ARG_OF_PERICENTER":99.4688,"MEAN_ANOMALY":260.6458,"EPHEMERIS_TYPE":0,"CLASSIFICATION_TYPE":"U","NORAD_CAT_ID":60308,"ELEMENT_SET_NO":999,"REV_AT_EPOCH":6774,"BSTAR":3.373551e-6,"MEAN_MOTION_DOT":-1.8e-6,"MEAN_MOTION_DDOT":0},{"OBJECT_NAME":"STARLINK-11213 [DTC]","OBJECT_ID":"2024-133J","EPOCH":"2025-09-25T07:36:34.802208","MEAN_MOTION":15.69711032,"ECCENTRICITY":0.00012067,"INCLINATION":53.159,"RA_OF_ASC_NODE":241.2145,"ARG_OF_PERICENTER":86.9953,"MEAN_ANOMALY":273.1203,"EPHEMERIS_TYPE":0,"CLASSIFICATION_TYPE":"U","NORAD_CAT_ID":60309,"ELEMENT_SET_NO":999,"REV_AT_EPOCH":6776,"BSTAR":-1.476539e-6,"MEAN_MOTION_DOT":-7.68e-6,"MEAN_MOTION_DDOT":0},{"OBJECT_NAME":"STARLINK-11200 [DTC]","OBJECT_ID":"2024-133K","EPOCH":"2025-09-25T07:29:31.184736","MEAN_MOTION":15.69709209,"ECCENTRICITY":9.109e-5,"INCLINATION":53.1574,"RA_OF_ASC_NODE":241.1824,"ARG_OF_PERICENTER":85.4433,"MEAN_ANOMALY":274.6689,"EPHEMERIS_TYPE":0,"CLASSIFICATION_TYPE":"U","NORAD_CAT_ID":60310,"ELEMENT_SET_NO":999,"REV_AT_EPOCH":6776,"BSTAR":-5.745419e-6,"MEAN_MOTION_DOT":-1.284e-5,"MEAN_MOTION_DDOT":0},{"OBJECT_NAME":"STARLINK-11206 [DTC]","OBJECT_ID":"2024-133M","EPOCH":"2025-09-25T02:40:29.001792","MEAN_MOTION":15.69714823,"ECCENTRICITY":0.00011399,"INCLINATION":53.1581,"RA_OF_ASC_NODE":242.7906,"ARG_OF_PERICENTER":83.8593,"MEAN_ANOMALY":276.2555,"EPHEMERIS_TYPE":0,"CLASSIFICATION_TYPE":"U","NORAD_CAT_ID":60312,"ELEMENT_SET_NO":999,"REV_AT_EPOCH":6772,"BSTAR":-5.476282e-6,"MEAN_MOTION_DOT":-1.252e-5,"MEAN_MOTION_DDOT":0},{"OBJECT_NAME":"STARLINK-11205 [DTC]","OBJECT_ID":"2024-133N","EPOCH":"2025-09-25T05:36:47.651904","MEAN_MOTION":15.69709404,"ECCENTRICITY":0.00016445,"INCLINATION":53.1581,"RA_OF_ASC_NODE":242.1302,"ARG_OF_PERICENTER":48.4845,"MEAN_ANOMALY":311.6314,"EPHEMERIS_TYPE":0,"CLASSIFICATION_TYPE":"U","NORAD_CAT_ID":60313,"ELEMENT_SET_NO":999,"REV_AT_EPOCH":6774,"BSTAR":-1.3193608e-5,"MEAN_MOTION_DOT":-2.187e-5,"MEAN_MOTION_DDOT":0},{"OBJECT_NAME":"STARLINK-32191","OBJECT_ID":"2024-133P","EPOCH":"2025-09-25T04:33:46.552032","MEAN_MOTION":15.30194185,"ECCENTRICITY":0.00010547,"INCLINATION":53.1605,"RA_OF_ASC_NODE":345.6453,"ARG_OF_PERICENTER":113.7208,"MEAN_ANOMALY":246.3903,"EPHEMERIS_TYPE":0,"CLASSIFICATION_TYPE":"U","NORAD_CAT_ID":60314,"ELEMENT_SET_NO":999,"REV_AT_EPOCH":6630,"BSTAR":7.3872008e-5,"MEAN_MOTION_DOT":1.829e-5,"MEAN_MOTION_DDOT":0},{"OBJECT_NAME":"STARLINK-32194","OBJECT_ID":"2024-133Q","EPOCH":"2025-09-24T11:40:28.528320","MEAN_MOTION":15.30190656,"ECCENTRICITY":0.00013838,"INCLINATION":53.1614,"RA_OF_ASC_NODE":349.0767,"ARG_OF_PERICENTER":119.0444,"MEAN_ANOMALY":241.0696,"EPHEMERIS_TYPE":0,"CLASSIFICATION_TYPE":"U","NORAD_CAT_ID":60315,"ELEMENT_SET_NO":999,"REV_AT_EPOCH":6619,"BSTAR":-1.4821103e-5,"MEAN_MOTION_DOT":-7.98e-6,"MEAN_MOTION_DDOT":0},{"OBJECT_NAME":"STARLINK-32192","OBJECT_ID":"2024-133R","EPOCH":"2025-09-24T12:21:20.932704","MEAN_MOTION":15.30178271,"ECCENTRICITY":0.00012858,"INCLINATION":53.1621,"RA_OF_ASC_NODE":348.5423,"ARG_OF_PERICENTER":91.3665,"MEAN_ANOMALY":268.7484,"EPHEMERIS_TYPE":0,"CLASSIFICATION_TYPE":"U","NORAD_CAT_ID":60316,"ELEMENT_SET_NO":999,"REV_AT_EPOCH":6629,"BSTAR":5.0860664e-5,"MEAN_MOTION_DOT":1.146e-5,"MEAN_MOTION_DDOT":0},{"OBJECT_NAME":"STARLINK-32189","OBJECT_ID":"2024-133S","EPOCH":"2025-09-24T11:37:26.909472","MEAN_MOTION":15.30182164,"ECCENTRICITY":0.00014489,"INCLINATION":53.1613,"RA_OF_ASC_NODE":349.0633,"ARG_OF_PERICENTER":104.5782,"MEAN_ANOMALY":255.5379,"EPHEMERIS_TYPE":0,"CLASSIFICATION_TYPE":"U","NORAD_CAT_ID":60317,"ELEMENT_SET_NO":999,"REV_AT_EPOCH":6628,"BSTAR":-7.4108165e-5,"MEAN_MOTION_DOT":-2.552e-5,"MEAN_MOTION_DDOT":0}]
