STARLINK-11147 [DTC]    
1 60301U 24133A   25267.21027640 -.00001068  00000+0 -39644-5 0  9994
2 60301  53.1592 247.1282 0001126  81.8382 278.2764 15.69692136 67583
STARLINK-11128 [DTC]    
1 60302U 24133B   25267.14169432  .00004406  00000+0  41213-4 0  9994
2 60302  53.1578 247.4079 0001135  78.2232 281.8913 15.69705589 67571
STARLINK-11227 [DTC]    
1 60303U 24133C   25268.09182688  .00001029  00000+0  13348-4 0  9994
2 60303  53.1585 242.6675 0001200  98.6309 261.4845 15.69712592 67809
STARLINK-11224 [DTC]    
1 60304U 24133D   25268.21424572  .00000316  00000+0  74611-5 0  9999
2 60304  53.1584 242.0080 0001018  92.0954 268.0181 15.69732673 67824
STARLINK-11115 [DTC]    
1 60305U 24133E   25268.20935203  .00000212  00000+0  66213-5 0  9991
2 60305  53.1586 241.9742 0002146 100.4753 259.6507 15.69714793 67746
STARLINK-11109 [DTC]    
1 60306U 24133F   25268.20444280  .00000883  00000+0  12146-4 0  9991
2 60306  53.1584 241.9404 0001058  76.5484 283.5652 15.69711007 67747
STARLINK-11223 [DTC]    
1 60307U 24133G   25268.19463899 -.00001555  00000+0 -79846-5 0  9997
2 60307  53.1579 241.8768 0000961 118.2155 241.8960 15.69708074 67744
STARLINK-11192 [DTC]    
1 60308U 24133H   25268.19954006 -.00000180  00000+0  33736-5 0  9993
2 60308  53.1591 241.9070 0001132  99.4688 260.6458 15.69710654 67746
STARLINK-11213 [DTC]    
1 60309U 24133J   25268.31706947 -.00000768  00000+0 -14765-5 0  9991
2 60309  53.1590 241.2145 0001206  86.9953 273.1203 15.69711032 67760
STARLINK-11200 [DTC]    
1 60310U 24133K   25268.31216649 -.00001284  00000+0 -57454-5 0  9994
2 60310  53.1574 241.1824 0000910  85.4433 274.6689 15.69709209 67762
STARLINK-11206 [DTC]    
1 60312U 24133M   25268.11144678 -.00001252  00000+0 -54763-5 0  9991
2 60312  53.1581 242.7906 0001139  83.8593 276.2555 15.69714823 67727
STARLINK-11205 [DTC]    
1 60313U 24133N   25268.23388486 -.00002187  00000+0 -13194-4 0  9992
2 60313  53.1581 242.1302 0001644  48.4845 311.6314 15.69709404 67748
STARLINK-32191          
1 60314U 24133P   25268.19012213  .00001829  00000+0  73872-4 0  9999
2 60314  53.1605 345.6453 0001054 113.7208 246.3903 15.30194185 66307
STARLINK-32194          
1 60315U 24133Q   25267.48644130 -.00000798  00000+0 -14821-4 0  9995
2 60315  53.1614 349.0767 0001383 119.0444 241.0696 15.30190656 66197
STARLINK-32192          
1 60316U 24133R   25267.51482561  .00001146  00000+0  50861-4 0  9998
2 60316  53.1621 348.5423 0001285  91.3665 268.7484 15.30178271 66298
STARLINK-32189          
1 60317U 24133S   25267.48433923 -.00002552  00000+0 -74108-4 0  9997
2 60317  53.1613 349.0633 0001448 104.5782 255.5379 15.30182164 66289
